{
  "type": "FeatureCollection",
  "features": [
    {
      "type": "Feature",
      "properties": {
        "norad_id": 31899,
        "name": "FENGYUN 1C DEB",
        "group": "fengyun-1c-debris",
        "lat": -67.85373693254793,
        "lon": 89.9090434784234,
        "alt_km": 1070.0358295728265,
        "timestamp": "2025-12-19T08:58:49.622824+00:00",
        "meta_object_name": "FENGYUN 1C DEB",
        "meta_object_id": "1999-025CLA",
        "meta_epoch": "2025-12-15T22:01:47.871552",
        "meta_mean_motion": 13.83525889,
        "meta_eccentricity": 0.01826858,
        "meta_inclination": 102.0836,
        "meta_ra_of_asc_node": 53.7231,
        "meta_arg_of_pericenter": 150.0114,
        "meta_mean_anomaly": 211.1643,
        "meta_ephemeris_type": 0,
        "meta_classification_type": "U",
        "meta_norad_cat_id": 31899,
        "meta_element_set_no": 999,
        "meta_rev_at_epoch": 67608,
        "meta_bstar": 0.0010397017,
        "meta_mean_motion_dot": 1.238e-05,
        "meta_mean_motion_ddot": 0,
        "tle_line1": "1 31899U 99025CLA 25349.91791518  .00001238  00000+0  10397-2 0  9994",
        "tle_line2": "2 31899 102.0836  53.7231 0182685 150.0114 211.1643 13.83525889676082"
      },
      "geometry": {
        "type": "Point",
        "coordinates": [
          89.9090434784234,
          -67.85373693254793
        ]
      }
    },
    {
      "type": "Feature",
      "properties": {
        "norad_id": 31901,
        "name": "FENGYUN 1C DEB",
        "group": "fengyun-1c-debris",
        "lat": -73.51918550161642,
        "lon": -15.148313926842137,
        "alt_km": 957.6456820808016,
        "timestamp": "2025-12-19T08:58:49.622834+00:00",
        "meta_object_name": "FENGYUN 1C DEB",
        "meta_object_id": "1999-025CLC",
        "meta_epoch": "2025-12-11T15:19:32.999232",
        "meta_mean_motion": 13.94142436,
        "meta_eccentricity": 0.01312062,
        "meta_inclination": 98.6009,
        "meta_ra_of_asc_node": 306.8787,
        "meta_arg_of_pericenter": 192.6168,
        "meta_mean_anomaly": 167.17,
        "meta_ephemeris_type": 0,
        "meta_classification_type": "U",
        "meta_norad_cat_id": 31901,
        "meta_element_set_no": 999,
        "meta_rev_at_epoch": 63392,
        "meta_bstar": 0.00012353957,
        "meta_mean_motion_dot": 1.36e-06,
        "meta_mean_motion_ddot": 0,
        "tle_line1": "1 31901U 99025CLC 25345.63857638  .00000136  00000+0  12354-3 0  9991",
        "tle_line2": "2 31901  98.6009 306.8787 0131206 192.6168 167.1700 13.94142436633925"
      },
      "geometry": {
        "type": "Point",
        "coordinates": [
          -15.148313926842137,
          -73.51918550161642
        ]
      }
    },
    {
      "type": "Feature",
      "properties": {
        "norad_id": 31902,
        "name": "FENGYUN 1C DEB",
        "group": "fengyun-1c-debris",
        "lat": -69.62788471975585,
        "lon": -3.194423028351618,
        "alt_km": 942.4761063923179,
        "timestamp": "2025-12-19T08:58:49.622844+00:00",
        "meta_object_name": "FENGYUN 1C DEB",
        "meta_object_id": "1999-025CLD",
        "meta_epoch": "2025-12-14T10:15:01.409760",
        "meta_mean_motion": 14.23280437,
        "meta_eccentricity": 0.01808745,
        "meta_inclination": 98.5078,
        "meta_ra_of_asc_node": 328.249,
        "meta_arg_of_pericenter": 144.2655,
        "meta_mean_anomaly": 10.026,
        "meta_ephemeris_type": 0,
        "meta_classification_type": "U",
        "meta_norad_cat_id": 31902,
        "meta_element_set_no": 999,
        "meta_rev_at_epoch": 64815,
        "meta_bstar": 0.00025783004,
        "meta_mean_motion_dot": 6.48e-06,
        "meta_mean_motion_ddot": 0,
        "tle_line1": "1 31902U 99025CLD 25348.42709965  .00000648  00000+0  25783-3 0  9999",
        "tle_line2": "2 31902  98.5078 328.2490 0180874 144.2655  10.0260 14.23280437648154"
      },
      "geometry": {
        "type": "Point",
        "coordinates": [
          -3.194423028351618,
          -69.62788471975585
        ]
      }
    },
    {
      "type": "Feature",
      "properties": {
        "norad_id": 31903,
        "name": "FENGYUN 1C DEB",
        "group": "fengyun-1c-debris",
        "lat": -54.878247312227515,
        "lon": -3.984603332079605,
        "alt_km": 668.8048411788313,
        "timestamp": "2025-12-19T08:58:49.622854+00:00",
        "meta_object_name": "FENGYUN 1C DEB",
        "meta_object_id": "1999-025CLE",
        "meta_epoch": "2025-12-18T10:12:48.871296",
        "meta_mean_motion": 14.60534714,
        "meta_eccentricity": 0.01297033,
        "meta_inclination": 99.274,
        "meta_ra_of_asc_node": 341.5214,
        "meta_arg_of_pericenter": 18.8329,
        "meta_mean_anomaly": 341.7601,
        "meta_ephemeris_type": 0,
        "meta_classification_type": "U",
        "meta_norad_cat_id": 31903,
        "meta_element_set_no": 999,
        "meta_rev_at_epoch": 97478,
        "meta_bstar": 0.00066496569,
        "meta_mean_motion_dot": 3.571e-05,
        "meta_mean_motion_ddot": 0,
        "tle_line1": "1 31903U 99025CLE 25352.42556564  .00003571  00000+0  66497-3 0  9995",
        "tle_line2": "2 31903  99.2740 341.5214 0129703  18.8329 341.7601 14.60534714974784"
      },
      "geometry": {
        "type": "Point",
        "coordinates": [
          -3.984603332079605,
          -54.878247312227515
        ]
      }
    },
    {
      "type": "Feature",
      "properties": {
        "norad_id": 31905,
        "name": "FENGYUN 1C DEB",
        "group": "fengyun-1c-debris",
        "lat": 69.03496454574903,
        "lon": 174.87052881084878,
        "alt_km": 657.042255131264,
        "timestamp": "2025-12-19T08:58:49.622864+00:00",
        "meta_object_name": "FENGYUN 1C DEB",
        "meta_object_id": "1999-025CLG",
        "meta_epoch": "2025-12-17T21:18:08.838720",
        "meta_mean_motion": 14.33121698,
        "meta_eccentricity": 0.01968583,
        "meta_inclination": 99.1505,
        "meta_ra_of_asc_node": 328.4234,
        "meta_arg_of_pericenter": 79.0692,
        "meta_mean_anomaly": 283.257,
        "meta_ephemeris_type": 0,
        "meta_classification_type": "U",
        "meta_norad_cat_id": 31905,
        "meta_element_set_no": 999,
        "meta_rev_at_epoch": 96698,
        "meta_bstar": 0.00047351199,
        "meta_mean_motion_dot": 1.559e-05,
        "meta_mean_motion_ddot": 0,
        "tle_line1": "1 31905U 99025CLG 25351.88760230  .00001559  00000+0  47351-3 0  9995",
        "tle_line2": "2 31905  99.1505 328.4234 0196858  79.0692 283.2570 14.33121698966988"
      },
      "geometry": {
        "type": "Point",
        "coordinates": [
          174.87052881084878,
          69.03496454574903
        ]
      }
    },
    {
      "type": "Feature",
      "properties": {
        "norad_id": 31906,
        "name": "FENGYUN 1C DEB",
        "group": "fengyun-1c-debris",
        "lat": -73.13054105904025,
        "lon": -83.87244739262736,
        "alt_km": 848.6532061820171,
        "timestamp": "2025-12-19T08:58:49.622885+00:00",
        "meta_object_name": "FENGYUN 1C DEB",
        "meta_object_id": "1999-025CLH",
        "meta_epoch": "2025-12-17T15:25:09.477120",
        "meta_mean_motion": 14.24695872,
        "meta_eccentricity": 0.00511878,
        "meta_inclination": 98.6925,
        "meta_ra_of_asc_node": 124.7118,
        "meta_arg_of_pericenter": 110.2154,
        "meta_mean_anomaly": 268.1338,
        "meta_ephemeris_type": 0,
        "meta_classification_type": "U",
        "meta_norad_cat_id": 31906,
        "meta_element_set_no": 999,
        "meta_rev_at_epoch": 95199,
        "meta_bstar": 0.0017875083,
        "meta_mean_motion_dot": 4.175e-05,
        "meta_mean_motion_ddot": 0,
        "tle_line1": "1 31906U 99025CLH 25351.64247080  .00004175  00000+0  17875-2 0  9997",
        "tle_line2": "2 31906  98.6925 124.7118 0051187 110.2154 268.1338 14.24695872951992"
      },
      "geometry": {
        "type": "Point",
        "coordinates": [
          -83.87244739262736,
          -73.13054105904025
        ]
      }
    },
    {
      "type": "Feature",
      "properties": {
        "norad_id": 31910,
        "name": "FENGYUN 1C DEB",
        "group": "fengyun-1c-debris",
        "lat": -48.311546266905005,
        "lon": 22.68063332178816,
        "alt_km": 902.0030603775531,
        "timestamp": "2025-12-19T08:58:49.622896+00:00",
        "meta_object_name": "FENGYUN 1C DEB",
        "meta_object_id": "1999-025CLM",
        "meta_epoch": "2025-12-17T20:43:15.461760",
        "meta_mean_motion": 14.47683879,
        "meta_eccentricity": 0.02282306,
        "meta_inclination": 97.6653,
        "meta_ra_of_asc_node": 12.6118,
        "meta_arg_of_pericenter": 139.661,
        "meta_mean_anomaly": 222.1768,
        "meta_ephemeris_type": 0,
        "meta_classification_type": "U",
        "meta_norad_cat_id": 31910,
        "meta_element_set_no": 999,
        "meta_rev_at_epoch": 64443,
        "meta_bstar": 0.00051438497,
        "meta_mean_motion_dot": 2.591e-05,
        "meta_mean_motion_ddot": 0,
        "tle_line1": "1 31910U 99025CLM 25351.86337340  .00002591  00000+0  51438-3 0  9999",
        "tle_line2": "2 31910  97.6653  12.6118 0228230 139.6610 222.1768 14.47683879644430"
      },
      "geometry": {
        "type": "Point",
        "coordinates": [
          22.68063332178816,
          -48.311546266905005
        ]
      }
    }
  ]
}